365P/PANSTARRS,e,9.8499,86.6561,67.4152,3.156298,0.1757669,0.58163731,101.6812,05/10.0/2025,2000,g 17.0,4.0
# From MPC114610
366P/Spacewatch,e,8.8567,70.7231,152.9946,3.500350,0.1505002,0.34864165,14.9161,05/10.0/2025,2000,g 15.0,4.0
# From MPC112395
367P/Catalina,e,8.4591,58.6612,172.6831,3.511702,0.1497709,0.28013487,17.7437,05/10.0/2025,2000,g 17.5,2.0
# From MPC114610
368P/NEAT,e,15.4825,257.8562,118.9858,5.535013,0.0756878,0.62567891,183.8252,05/10.0/2025,2000,g 14.0,4.0
# From MPC114610
369P/Hill,e,10.3196,47.2854,13.2383,4.378678,0.1075696,0.55590579,257.4942,05/10.0/2025,2000,g 15.0,4.0
# From MPEC 2021-F20
370P/NEAT,e,19.4176,55.0859,356.7843,6.440072,0.0603070,0.61517796,152.1704,05/10.0/2025,2000,g 13.0,4.0
# From MPC114610
371P/LINEAR-Skiff,e,17.3839,67.2836,308.5671,4.180556,0.1153063,0.47659123,277.4451,05/10.0/2025,2000,g 16.0,4.0
# From MPEC 2020-K19
372P/McNaught,e,9.5040,27.5500,325.9609,4.512818,0.1028093,0.15123993,245.8626,05/10.0/2025,2000,g 13.5,4.0
# From MPEC 2021-F20
373P/Rinner,e,13.7706,231.9313,221.1357,3.797000,0.1332120,0.39381097,295.6657,05/10.0/2025,2000,g 14.5,4.0
# From MPC114610
374P/Larson,e,10.7606,7.8676,51.5837,4.971295,0.0889201,0.46363373,205.1711,05/10.0/2025,2000,g 14.0,4.0
# From MPEC 2021-F20
375P/Hill,e,17.3742,359.8343,119.4501,5.545545,0.0754723,0.66023270,175.7992,05/10.0/2025,2000,g 16.0,4.0
# From MPEC 2024-RQ6
376P/LONEOS,e,1.1662,312.8492,285.3509,5.755313,0.0713840,0.51374760,147.4676,05/10.0/2025,2000,g 12.5,4.0
# From MPEC 2022-N37
377P/Scotti,e,9.0312,225.9400,354.8844,6.694812,0.0568979,0.25142204,100.4571,05/10.0/2025,2000,g  9.5,4.0
# From MPEC 2025-A40
378P/McNaught,e,19.1599,93.7912,193.3092,6.287088,0.0625216,0.46349278,104.8073,05/10.0/2025,2000,g 12.0,4.0
# From MPC115889
379P/Spacewatch,e,12.4365,30.4495,184.6845,3.483463,0.1515958,0.35020519,316.2215,05/10.0/2025,2000,g 15.0,4.0
# From MPEC 2023-C45
380P/PANSTARRS,e,8.0329,127.7222,87.7192,4.442563,0.1052576,0.33404918,235.1238,05/10.0/2025,2000,g 12.5,4.0
# From MPEC 2021-J28
381P/LINEAR-Spacewatch,e,28.3380,173.3199,173.8487,7.145055,0.0516055,0.68056629,105.9884,05/10.0/2025,2000,g 17.5,2.0
# From MPC182891
382P/Larson,e,8.2693,170.2408,162.3619,5.891168,0.0689290,0.26567683,88.7281,05/10.0/2025,2000,g  8.0,4.0
# From MPEC 2022-OB6
383P/Christensen,e,12.3169,207.8550,133.7243,3.549009,0.1474156,0.59848335,298.2942,05/10.0/2025,2000,g 18.0,4.0
# From MPC182891
384P/Kowalski,e,7.2840,354.1880,37.7037,2.897523,0.1998314,0.61625779,46.5362,05/10.0/2025,2000,g 19.5,4.0
# From MPEC 2021-F20
385P/Hill,e,16.8224,357.0355,44.4618,4.289112,0.1109566,0.40186469,228.7571,05/10.0/2025,2000,g 13.0,4.0
# From MPEC 2021-L04
386P/PANSTARRS,e,15.2467,134.9158,353.1030,4.049094,0.1209671,0.41749550,208.4587,05/10.0/2025,2000,g 14.5,4.0
# From MPEC 2021-J28
387P/Boattini,e,8.9379,259.2388,162.8521,4.797453,0.0937968,0.73699152,194.1631,05/10.0/2025,2000,g 15.0,4.0
# From MPEC 2021-S45
388P/Gibbs,e,23.8785,37.0099,42.3684,5.240787,0.0821503,0.61936025,173.6867,05/10.0/2025,2000,g 13.0,4.0
# From MPEC 2022-OB6
389P/Siding Spring,e,160.0796,218.8518,249.3251,5.630155,0.0737774,0.70569306,144.3561,05/10.0/2025,2000,g 16.0,4.0
# From MPEC 2024-EF7
390P/Gibbs,e,18.5226,152.2023,232.5559,5.817727,0.0702383,0.70668902,131.6688,05/10.0/2025,2000,g 12.0,4.0
# From MPEC 2021-F20
391P/Kowalski,e,21.2569,124.7743,186.9404,4.691460,0.0969934,0.11837955,253.5686,05/10.0/2025,2000,g  8.0,4.0
# From MPEC 2021-J28
392P/LINEAR,e,4.9286,24.8040,71.9631,6.142366,0.0647441,0.68393600,120.6226,05/10.0/2025,2000,g 14.5,4.0
# From MPC182892
393P/Spacewatch-Hill,e,16.7836,36.4015,329.2067,4.800391,0.0937107,0.11911912,189.1595,05/10.0/2025,2000,g 11.0,4.0
# From MPEC 2020-KB7
394P/PANSTARRS,e,8.5281,98.1044,54.4475,4.326564,0.1095190,0.36834397,217.6113,05/10.0/2025,2000,g 16.0,2.4
# From MPC182892
395P/Catalina-NEAT,e,3.5702,220.9711,100.6801,7.202931,0.0509847,0.41153342,59.8760,05/10.0/2025,2000,g 10.0,4.0
# From MPEC 2020-KB7
396P/,e,5.4425,136.6077,8.3079,6.798774,0.0555979,0.41698306,115.6920,05/10.0/2025,2000,g 12.0,4.0
# From MPEC 2022-OB6
397P/Lemmon,e,10.9200,8.2095,14.5873,3.832206,0.1313805,0.40460005,234.5119,05/10.0/2025,2000,g 12.0,4.0
# From MPEC 2021-L04
398P/Boattini,e,11.0274,320.1348,127.5494,3.124470,0.1784594,0.58376231,284.3469,05/10.0/2025,2000,g 15.5,4.0
# From MPEC 2023-XP6
399P/PANSTARRS,e,13.3164,207.1173,214.4477,3.793614,0.1333903,0.44729270,193.0647,05/10.0/2025,2000,g 14.0,4.0
# From MPEC 2024-TD8
400P/PANSTARRS,e,10.9251,176.3486,238.9505,3.561993,0.1466103,0.40959983,227.0248,05/10.0/2025,2000,g 15.5,2.8
# From MPEC 2022-K19
401P/McNaught,e,12.8002,359.9240,309.3547,5.776764,0.0709867,0.57835539,140.8843,05/10.0/2025,2000,g 12.5,4.0
# From MPEC 2024-LE0
402P/LINEAR,e,30.8290,123.0455,326.9876,7.040656,0.0527575,0.44002308,65.4712,05/10.0/2025,2000,g  9.0,4.0
# From MPEC 2021-J28
403P/Catalina,e,12.3320,277.5613,163.9677,5.432606,0.0778380,0.50423710,131.9461,05/10.0/2025,2000,g 12.0,4.0
# From MPEC 2025-GB9
404P/Bressi,e,9.8043,260.0420,169.0099,4.718875,0.0961494,0.12425491,53.4647,05/10.0/2025,2000,g 10.0,4.0
# From MPEC 2021-L04
405P/Lemmon,e,9.3791,112.1933,3.3083,3.603864,0.1440627,0.69018663,229.9726,05/10.0/2025,2000,g 17.5,4.0
# From MPEC 2021-F20
406P/Gibbs,e,1.2099,352.3892,11.5599,3.579419,0.1455410,0.54105113,247.0797,05/10.0/2025,2000,g 17.0,4.0
# From MPEC 2022-YN2
407P/PANSTARRS-Fuls,e,4.8759,80.2431,93.1475,3.492747,0.1509918,0.37586218,293.3140,05/10.0/2025,2000,g 14.0,4.0
# From MPEC 2025-J08
408P/Novichonok-Gerke,e,19.3519,189.4510,226.6886,4.745694,0.0953355,0.26843123,90.2775,05/10.0/2025,2000,g 11.0,4.0
# From MPEC 2022-ED3
409P/LONEOS-Hill,e,17.1480,143.6404,15.0417,6.032814,0.0665157,0.71021791,103.9221,05/10.0/2025,2000,g 14.0,4.0
# From MPEC 2022-M21
410P/NEAT-LINEAR,e,9.3881,139.9341,313.2691,6.653519,0.0574284,0.51172561,81.2764,05/10.0/2025,2000,g 12.5,4.0
# From MPEC 2025-HB5
411P/Christensen,e,12.3889,77.6515,46.5699,5.811663,0.0703483,0.58178843,110.1188,05/10.0/2025,2000,g 13.5,4.0
# From MPEC 2021-F20
412P/WISE,e,8.9298,0.8433,155.8635,3.111377,0.1795871,0.47905332,290.7426,05/10.0/2025,2000,g 17.0,4.0
# From MPEC 2025-J08
413P/Larson,e,15.9613,38.9496,186.7430,3.735465,0.1365171,0.41786599,190.4044,05/10.0/2025,2000,g 14.0,4.0
# From MPEC 2024-JU4
414P/STEREO,e,23.4073,257.8156,210.7098,2.792083,0.2112572,0.81226424,330.5657,05/10.0/2025,2000,g 19.0,4.0
# From MPEC 2022-J42
415P/Tenagra,e,31.8091,160.2581,345.8814,4.108238,0.1183643,0.19551167,182.9620,05/10.0/2025,2000,g 12.0,4.0
# From MPEC 2025-HB5
416P/Scotti,e,3.3634,355.7329,134.4505,4.006498,0.1229014,0.45545765,189.6754,05/10.0/2025,2000,g 15.5,4.0
# From MPEC 2021-W31
417P/NEOWISE,e,9.8691,112.1386,126.4242,3.344279,0.1611574,0.55609434,242.0743,05/10.0/2025,2000,g 16.5,4.0
# From MPEC 2022-TA0
418P/LINEAR,e,5.7808,277.6207,307.3364,5.090278,0.0858206,0.66384583,111.7064,05/10.0/2025,2000,g 13.0,4.0
# From MPEC 2023-UR6
419P/PANSTARRS,e,2.7955,40.4130,187.8596,3.533558,0.1483835,0.27380170,191.9920,05/10.0/2025,2000,g 12.5,4.0
# From MPEC 2024-L77
420P/Hill,e,14.4980,173.5587,156.4104,5.482599,0.0767758,0.49512259,83.5072,05/10.0/2025,2000,g 11.5,4.0
# From MPEC 2021-W31
421P/McNaught,e,10.0759,55.3328,259.8615,5.074972,0.0862092,0.67438542,135.1148,05/10.0/2025,2000,g 14.0,4.0
# From MPEC 2024-N80
422P/Christensen,e,39.5805,36.0142,304.7641,6.274602,0.0627083,0.50573555,76.2007,05/10.0/2025,2000,g 11.0,4.0
# From MPEC 2023-FK0
423P/Lemmon,e,8.3428,33.3021,80.8979,6.181873,0.0641245,0.12278104,84.7542,05/10.0/2025,2000,g  8.0,4.0
# From MPEC 2022-CN4
424P/LaSagra,e,8.6817,51.2102,312.5579,4.420951,0.1060304,0.69040415,136.4681,05/10.0/2025,2000,g 17.0,4.0
# From MPEC 2024-C04
425P/Kowalski,e,16.4143,210.0861,200.9870,6.351429,0.0615739,0.54374509,81.7093,05/10.0/2025,2000,g 12.0,4.0
# From MPEC 2024-N80
426P/PANSTARRS,e,17.7841,280.3970,118.3977,3.185882,0.1733243,0.16105062,105.3173,05/10.0/2025,2000,g 13.5,4.0
# From MPEC 2023-J29
428P/Gibbs,e,8.5030,299.3119,36.8973,3.488444,0.1512713,0.51822048,220.5313,05/10.0/2025,2000,g 15.0,4.0
# From MPEC 2024-EF7
429P/LINEAR-Hill,e,7.5143,322.0163,75.7325,3.555782,0.1469946,0.49087972,179.8947,05/10.0/2025,2000,g 15.5,4.0
# From MPEC 2022-L66
430P/Scotti,e,4.4755,54.6483,94.4492,3.103283,0.1802902,0.50025350,226.1343,05/10.0/2025,2000,g 16.5,4.0
# From MPEC 2025-A40
431P/Scotti,e,22.3809,202.8390,200.0002,3.476962,0.1520212,0.47737389,179.6098,05/10.0/2025,2000,g 14.0,4.0
# From MPEC 2021-U31
432P/PANSTARRS,e,10.0679,239.1304,105.2762,3.038279,0.1861069,0.24085651,251.2338,05/10.0/2025,2000,g 17.0,4.0
# From MPEC 2024-D33
434P/Tenagra,e,6.3362,288.9144,128.4394,4.135830,0.1171818,0.27434715,151.2688,05/10.0/2025,2000,g 13.0,4.0
# From MPEC 2021-W31
435P/PANSTARRS,e,18.8744,98.5246,244.2128,3.021585,0.1876514,0.31757552,259.6723,05/10.0/2025,2000,g 17.0,4.0
# From MPEC 2022-X67
436P/Garradd,e,20.1993,87.1568,282.7606,5.936751,0.0681367,0.66910048,85.1125,05/10.0/2025,2000,g 14.5,4.0
# From MPEC 2023-B57
437P/Lemmon-PANSTARRS,e,3.6890,245.8406,207.0519,4.568767,0.1009266,0.25506638,100.2994,05/10.0/2025,2000,g 13.0,4.0
# From MPEC 2025-A40
438P/Christensen,e,8.2807,260.1091,58.9903,3.852518,0.1303428,0.41415047,242.9312,05/10.0/2025,2000,g 14.5,4.0
# From MPEC 2022-C56
439P/LINEAR,e,7.1122,56.4376,342.1054,3.491794,0.1510537,0.46912550,204.3187,05/10.0/2025,2000,g 13.5,4.0
# From MPEC 2024-N80
440P/Kobayashi,e,12.3501,328.8074,183.2990,8.578953,0.0392241,0.76083476,44.5842,05/10.0/2025,2000,g 15.5,4.0
# From MPEC 2022-X67
441P/PANSTARRS,e,2.5747,143.5914,178.8639,4.132341,0.1173302,0.19467726,345.6436,05/10.0/2025,2000,g 13.5,4.0
# From MPEC 2024-N80
442P/McNaught,e,6.0573,31.9578,310.6486,4.955527,0.0893448,0.53255305,89.0112,05/10.0/2025,2000,g 13.5,4.0
# From MPEC 2024-TD8
443P/PANSTARRS-Christensen,e,19.8879,108.9344,145.0781,4.124637,0.1176591,0.28298385,111.0098,05/10.0/2025,2000,g 13.5,4.0
# From MPEC 2023-VM5
